[{"OBJECT_NAME":"STARLINK-5521","OBJECT_ID":"2023-064Z","EPOCH":"2026-03-09T12:49:55.294464","MEAN_MOTION":14.98327281,"ECCENTRICITY":0.00028776,"INCLINATION":69.9998,"RA_OF_ASC_NODE":124.9485,"ARG_OF_PERICENTER":266.8459,"MEAN_ANOMALY":93.2371,"EPHEMERIS_TYPE":0,"CLASSIFICATION_TYPE":"U","NORAD_CAT_ID":56471,"ELEMENT_SET_NO":999,"REV_AT_EPOCH":15571,"BSTAR":-5.1809779e-5,"MEAN_MOTION_DOT":-7.11e-6,"MEAN_MOTION_DDOT":0},{"OBJECT_NAME":"SL-8 DEB","OBJECT_ID":"1965-020E","EPOCH":"2026-03-09T21:09:43.637184","MEAN_MOTION":13.87340604,"ECCENTRICITY":0.05255409,"INCLINATION":56.0761,"RA_OF_ASC_NODE":307.1304,"ARG_OF_PERICENTER":335.346,"MEAN_ANOMALY":22.319,"EPHEMERIS_TYPE":0,"CLASSIFICATION_TYPE":"U","NORAD_CAT_ID":1335,"ELEMENT_SET_NO":999,"REV_AT_EPOCH":99620,"BSTAR":0.0005831786,"MEAN_MOTION_DOT":1.917e-5,"MEAN_MOTION_DDOT":0}]
